OBJECT_NAME,OBJECT_ID,EPOCH,MEAN_MOTION,ECCENTRICITY,INCLINATION,RA_OF_ASC_NODE,ARG_OF_PERICENTER,MEAN_ANOMALY,EPHEMERIS_TYPE,CLASSIFICATION_TYPE,NORAD_CAT_ID,ELEMENT_SET_NO,REV_AT_EPOCH,BSTAR,MEAN_MOTION_DOT,MEAN_MOTION_DDOT
SES-1,2010-016A,2026-06-05T05:37:06.195936,1.00271653,.0002969,0.0212,306.9158,130.2672,159.7692,0,U,36516,999,5891,0,-.102E-5,0
ASTRA 3B,2010-021A,2026-06-05T03:21:41.628096,1.00272799,.0004428,1.4396,83.6974,348.8662,254.9136,0,U,36581,999,5874,0,.149E-5,0
COMSATBW-2,2010-021B,2026-06-05T03:20:38.766048,1.00268811,.0002819,0.0138,10.8435,75.7266,230.3937,0,U,36582,999,5883,0,.1E-5,0
BEIDOU-2 G3,2010-024A,2026-06-04T19:04:23.289600,1.00273570,.00085689,4.4865,61.5687,349.8433,207.6088,0,U,36590,999,5864,0,-.125E-5,0
BADR-5,2010-025A,2026-06-05T03:23:41.437248,1.00276903,.0002892,0.0893,104.0054,76.3079,154.6849,0,U,36592,999,5309,0,.166E-5,0
COMS 1,2010-032A,2026-06-01T17:43:38.675712,1.00271905,.00010648,4.7700,75.5552,351.7830,216.9341,0,U,36744,999,5093,0,-.334E-5,0
ARABSAT-5A,2010-032B,2026-06-04T23:58:21.880704,1.00274148,.0005552,0.0661,47.1762,52.1464,184.2179,0,U,36745,999,5852,0,.166E-5,0
ECHOSTAR 15,2010-034A,2026-06-05T02:41:10.142880,1.00271506,.0001981,0.0102,328.8005,102.2418,103.9882,0,U,36792,999,5820,0,.12E-6,0
BEIDOU-2 IGSO-1,2010-036A,2026-06-04T22:37:57.995040,1.00276170,.0059008,54.3007,163.0699,224.9601,312.4811,0,U,36828,999,5797,0,-.61E-6,0
NILESAT 201,2010-037A,2026-06-05T03:13:04.954368,1.00272154,.0004452,0.0112,288.1084,174.8664,191.8734,0,U,36830,999,5825,0,-.45E-6,0
RASCOM-QAF 1R,2010-037B,2026-06-05T03:15:49.689792,1.00273009,.0006624,0.0258,48.3403,28.4905,228.5822,0,U,36831,999,5818,0,0,0
AEHF-1 (USA 214),2010-039A,2026-06-04T22:15:30.738240,1.00269467,.0004266,8.1884,68.2056,2.9991,185.9893,0,U,36868,999,5353,0,.158E-5,0
XM-5,2010-053A,2026-06-04T09:35:36.621024,1.00272037,.00029236,0.0616,274.3576,276.0478,91.1514,0,U,37185,999,5735,0,-.11E-6,0
BSAT-3B,2010-056B,2026-06-05T00:21:04.705056,1.00274633,.000116,0.0569,241.3900,296.8334,190.3344,0,U,37207,999,5197,0,-.338E-5,0
BEIDOU-2 G4,2010-057A,2026-06-05T04:00:37.893600,1.00272356,.000482,3.6172,69.0187,203.4415,201.3150,0,U,37210,999,5717,0,-.1E-5,0
SKYTERRA 1,2010-061A,2026-06-05T05:37:06.291840,1.00271268,.0002953,5.0994,50.8635,17.4823,168.2813,0,U,37218,999,5707,0,-.107E-5,0
HYLAS 1,2010-065A,2026-06-04T23:53:12.129792,1.00271682,.0001256,5.6125,73.1670,321.4950,230.8722,0,U,37237,999,676,0,.101E-5,0
INTELSAT 17 (IS-17),2010-065B,2026-06-05T03:33:47.966976,1.00271918,.0002413,0.0070,294.2346,144.7480,294.0420,0,U,37238,999,5312,0,.11E-6,0
BEIDOU-2 IGSO-2,2010-068A,2026-06-02T17:12:31.818816,1.00288733,.0055435,47.5760,272.0122,212.8539,131.7633,0,U,37256,999,5664,0,-.206E-5,0
EUTELSAT KA-SAT 9A,2010-069A,2026-06-05T03:17:34.524096,1.00269070,.0004039,0.0607,10.2869,119.7582,181.9094,0,U,37258,999,4388,0,.73E-6,0
HISPASAT 30W-5,2010-070A,2026-06-05T04:25:09.409152,1.00271482,.0005237,0.0584,109.8347,346.6195,193.4778,0,U,37264,999,5306,0,-.204E-5,0
KOREASAT 6,2010-070B,2026-06-05T02:17:49.883136,1.00272132,.0002409,0.0183,53.4302,26.5650,7.8879,0,U,37265,999,5665,0,-.99E-6,0
BEIDOU-2 IGSO-3,2011-013A,2026-06-04T15:13:36.073056,1.00271497,.00344466,62.3902,40.2715,185.4993,3.7397,0,U,37384,999,5553,0,-.179E-5,0
INTELSAT 28 (IS-28),2011-016A,2026-06-05T03:20:05.781984,1.00269992,.0004051,1.7746,82.7703,351.3216,197.8293,0,U,37392,999,5316,0,-.213E-5,0
YAHSAT 1A,2011-016B,2026-06-05T00:04:43.772160,1.00270530,.0003143,0.0147,339.1068,106.0059,222.0054,0,U,37393,999,4228,0,0,0
SBIRS GEO-1 (USA 230),2011-019A,2026-06-05T01:40:38.794080,1.00272168,.0002111,4.5106,53.1319,10.6369,266.6948,0,U,37481,999,5527,0,.111E-5,0
TELSTAR 14R,2011-021A,2026-06-04T04:42:22.500864,1.00271570,.00026261,0.0178,355.3076,70.5841,194.3515,0,U,37602,999,5570,0,-.268E-5,0
GSAT-8,2011-022A,2026-06-05T03:30:48.254976,1.00272287,.0002193,2.0995,81.9707,219.7028,59.6936,0,U,37605,999,5309,0,.96E-6,0
ST-2,2011-022B,2026-06-05T03:40:09.856704,1.00271985,.0001936,0.0154,12.2002,74.8339,309.6241,0,U,37606,999,5515,0,-.199E-5,0
ZHONGXING-10,2011-026A,2026-06-05T03:39:24.930432,1.00271799,.0003702,1.0157,84.3439,354.1998,315.4447,0,U,37677,999,5487,0,-.177E-5,0
SES-3,2011-035A,2026-06-05T02:45:39.711744,1.00271481,.000285,1.2951,83.2201,345.7119,123.0367,0,U,37748,999,5447,0,-.9E-6,0
KAZSAT-2,2011-035B,2026-06-04T17:16:38.698176,1.00271011,.00012032,0.0368,249.8500,243.5046,105.4951,0,U,37749,999,5327,0,-.186E-5,0
