SES-1                   
1 36516U 10016A   26156.23409949 -.00000102  00000+0  00000+0 0  9991
2 36516   0.0212 306.9158 0002969 130.2672 159.7692  1.00271653 58914
ASTRA 3B                
1 36581U 10021A   26156.14006514  .00000149  00000+0  00000+0 0  9990
2 36581   1.4396  83.6974 0004428 348.8662 254.9136  1.00272799 58741
COMSATBW-2              
1 36582U 10021B   26156.13933757  .00000100  00000+0  00000+0 0  9995
2 36582   0.0138  10.8435 0002819  75.7266 230.3937  1.00268811 58830
BEIDOU-2 G3             
1 36590U 10024A   26155.79471400 -.00000125  00000+0  00000+0 0  9998
2 36590   4.4865  61.5687 0008568 349.8433 207.6088  1.00273570 58645
BADR-5                  
1 36592U 10025A   26156.14145182  .00000166  00000+0  00000+0 0  9990
2 36592   0.0893 104.0054 0002892  76.3079 154.6849  1.00276903 53096
COMS 1                  
1 36744U 10032A   26152.73864208 -.00000334  00000+0  00000+0 0  9993
2 36744   4.7700  75.5552 0001064 351.7830 216.9341  1.00271905 50939
ARABSAT-5A              
1 36745U 10032B   26155.99886436  .00000166  00000+0  00000+0 0  9994
2 36745   0.0661  47.1762 0005552  52.1464 184.2179  1.00274148 58525
ECHOSTAR 15             
1 36792U 10034A   26156.11192295  .00000012  00000+0  00000+0 0  9996
2 36792   0.0102 328.8005 0001981 102.2418 103.9882  1.00271506 58203
BEIDOU-2 IGSO-1         
1 36828U 10036A   26155.94303235 -.00000061  00000+0  00000+0 0  9991
2 36828  54.3007 163.0699 0059008 224.9601 312.4811  1.00276170 57970
NILESAT 201             
1 36830U 10037A   26156.13408512 -.00000045  00000+0  00000+0 0  9993
2 36830   0.0112 288.1084 0004452 174.8664 191.8734  1.00272154 58253
RASCOM-QAF 1R           
1 36831U 10037B   26156.13599178  .00000000  00000+0  00000+0 0  9993
2 36831   0.0258  48.3403 0006624  28.4905 228.5822  1.00273009 58189
AEHF-1 (USA 214)        
1 36868U 10039A   26155.92743910  .00000158  00000+0  00000+0 0  9990
2 36868   8.1884  68.2056 0004266   2.9991 185.9893  1.00269467 53531
XM-5                    
1 37185U 10053A   26155.39972941 -.00000011  00000+0  00000+0 0  9997
2 37185   0.0616 274.3576 0002923 276.0478  91.1514  1.00272037 57356
BSAT-3B                 
1 37207U 10056B   26156.01463779 -.00000338  00000+0  00000+0 0  9991
2 37207   0.0569 241.3900 0001160 296.8334 190.3344  1.00274633 51975
BEIDOU-2 G4             
1 37210U 10057A   26156.16710525 -.00000100  00000+0  00000+0 0  9993
2 37210   3.6172  69.0187 0004820 203.4415 201.3150  1.00272356 57176
SKYTERRA 1              
1 37218U 10061A   26156.23410060 -.00000107  00000+0  00000+0 0  9992
2 37218   5.0994  50.8635 0002953  17.4823 168.2813  1.00271268 57076
HYLAS 1                 
1 37237U 10065A   26155.99527928  .00000101  00000+0  00000+0 0  9994
2 37237   5.6125  73.1670 0001256 321.4950 230.8722  1.00271682  6765
INTELSAT 17 (IS-17)     
1 37238U 10065B   26156.14847184  .00000011  00000+0  00000+0 0  9992
2 37238   0.0070 294.2346 0002413 144.7480 294.0420  1.00271918 53121
BEIDOU-2 IGSO-2         
1 37256U 10068A   26153.71703494 -.00000206  00000+0  00000+0 0  9997
2 37256  47.5760 272.0122 0055435 212.8539 131.7633  1.00288733 56649
EUTELSAT KA-SAT 9A      
1 37258U 10069A   26156.13720514  .00000073  00000+0  00000+0 0  9992
2 37258   0.0607  10.2869 0004039 119.7582 181.9094  1.00269070 43885
HISPASAT 30W-5          
1 37264U 10070A   26156.18413668 -.00000204  00000+0  00000+0 0  9992
2 37264   0.0584 109.8347 0005237 346.6195 193.4778  1.00271482 53062
KOREASAT 6              
1 37265U 10070B   26156.09571624 -.00000099  00000+0  00000+0 0  9992
2 37265   0.0183  53.4302 0002409  26.5650   7.8879  1.00272132 56652
BEIDOU-2 IGSO-3         
1 37384U 11013A   26155.63444529 -.00000179  00000+0  00000+0 0  9993
2 37384  62.3902  40.2715 0034446 185.4993   3.7397  1.00271497 55536
INTELSAT 28 (IS-28)     
1 37392U 11016A   26156.13895581 -.00000213  00000+0  00000+0 0  9998
2 37392   1.7746  82.7703 0004051 351.3216 197.8293  1.00269992 53161
YAHSAT 1A               
1 37393U 11016B   26156.00328440  .00000000  00000+0  00000+0 0  9993
2 37393   0.0147 339.1068 0003143 106.0059 222.0054  1.00270530 42280
SBIRS GEO-1 (USA 230)   
1 37481U 11019A   26156.06989345  .00000111  00000+0  00000+0 0  9990
2 37481   4.5106  53.1319 0002111  10.6369 266.6948  1.00272168 55270
TELSTAR 14R             
1 37602U 11021A   26155.19609376 -.00000268  00000+0  00000+0 0  9998
2 37602   0.0178 355.3076 0002626  70.5841 194.3515  1.00271570 55704
GSAT-8                  
1 37605U 11022A   26156.14639184  .00000096  00000+0  00000+0 0  9996
2 37605   2.0995  81.9707 0002193 219.7028  59.6936  1.00272287 53098
ST-2                    
1 37606U 11022B   26156.15289186 -.00000199  00000+0  00000+0 0  9996
2 37606   0.0154  12.2002 0001936  74.8339 309.6241  1.00271985 55158
ZHONGXING-10            
1 37677U 11026A   26156.15237188 -.00000177  00000+0  00000+0 0  9999
2 37677   1.0157  84.3439 0003702 354.1998 315.4447  1.00271799 54876
SES-3                   
1 37748U 11035A   26156.11504296 -.00000090  00000+0  00000+0 0  9995
2 37748   1.2951  83.2201 0002850 345.7119 123.0367  1.00271481 54476
KAZSAT-2                
1 37749U 11035B   26155.71989234 -.00000186  00000+0  00000+0 0  9996
2 37749   0.0368 249.8500 0001203 243.5046 105.4951  1.00271011 53272
